0 SL-8 DEB
1 21137U 91009P   13281.49504227  .00000023  00000-0  35187-3 0  1434
2 21137 074.0420 284.8797 0150497 073.2790 094.7094 12.18024706  6394
0 SL-8 DEB
1 21137U 91009P   13283.76887213  .00000116  00000-0  12373-2 0  1440
2 21137 074.0421 282.0374 0150487 070.0678 345.2006 12.18023780  6674
0 SL-8 DEB
1 21137U 91009P   13286.16590788  .00000094  00000-0  10254-2 0  1457
2 21137 074.0422 279.0395 0150526 066.6513 055.9522 12.18024499  6965
0 SL-8 DEB
1 21137U 91009P   13288.39400502 -.00000131  00000-0 -11228-2 0  1465
2 21137 074.0426 276.2529 0150564 063.4804 105.9166 12.18026661  7231
0 SL-8 DEB
1 21137U 91009P   13290.66657093 -.00000174  00000-0 -15347-2 0  1471
2 21137 074.0430 273.4105 0150556 060.2531 350.8842 12.18026626  7512
0 SL-8 DEB
1 21137U 91009P   13292.87518024  .00000053  00000-0  63794-3 0  1481
2 21137 074.0433 270.6485 0150568 057.1131 315.4221 12.18024329  7784
0 SL-8 DEB
1 21137U 91009P   13295.20115729  .00000177  00000-0  18294-2 0  1498
2 21137 074.0434 267.7399 0150625 053.8022 074.5927 12.18023522  8064
